TEN-KOH                 
1 43677U 18084G   23136.91582874  .00002253  00000+0  22286-3 0  9991
2 43677  98.0081 276.2433 0014035 249.8319 110.1390 14.92871145247393
DIWATA-2B               
1 43678U 18084H   23136.76409780  .00002588  00000+0  25251-3 0  9995
2 43678  98.0172 280.1109 0008101 264.3266  95.7031 14.93333917247570
STARS-AO                
1 43679U 18084J   23136.91496540  .00003200  00000+0  28647-3 0  9997
2 43679  98.0192 283.3605 0007132 266.1382  93.9023 14.96567652247750
AUTCUBE 2               
1 43681U 18084K   23136.85323877  .00002736  00000+0  25357-3 0  9993
2 43681  98.0150 281.3395 0007747 260.6358  99.3986 14.95325646247623
METOP-C                 
1 43689U 18087A   23136.86978236  .00000142  00000+0  84885-4 0  9991
2 43689  98.6848 196.8847 0003682 138.4743 221.6714 14.21504117234678
ES'HAIL 2               
1 43700U 18090A   23136.82696017  .00000142  00000+0  00000+0 0  9991
2 43700   0.0124 277.8533 0001494 172.1736 107.7525  1.00273501 16376
FACSAT-1                
1 43721U 18096C   23136.91033641  .00442923  77319-4  13586-2 0  9993
2 43721  97.3037 227.2212 0011385 252.8701 198.5140 15.91739928249602
REAKTOR HELLO WORLD     
1 43743U 18096AA  23136.17695456  .00055206  00000+0  82719-3 0  9990
2 43743  97.3180 222.3854 0008861 289.9084  70.1215 15.54735962249198
ELYSIUM STAR 2 & LFF    
1 43760U 18099C   23136.62443721  .00011446  00000+0  79618-3 0  9990
2 43760  97.5684 203.1031 0009019 199.5586 160.5296 15.05619531243108
2018-099D               
1 43761U 18099D   23136.93126287  .00003460  00000+0  30184-3 0  9992
2 43761  97.5788 199.1598 0011502 225.2038 134.8236 14.97438346242891
AISTECHSAT 2            
1 43768U 18099L   23136.11692633  .00004648  00000+0  39622-3 0  9997
2 43768  97.5701 196.7839 0009331 221.6420 138.4094 14.98181128242443
FOX-1CLIFF (AO-95)      
1 43770U 18099N   23136.86616705  .00004568  00000+0  37586-3 0  9996
2 43770  97.5779 199.2488 0010543 229.4549 130.5757 14.99558105242919
RANGE-A                 
1 43772U 18099Q   23136.90603911  .00005741  00000+0  45185-3 0  9996
2 43772  97.5822 201.9526 0007672 195.7202 164.3785 15.01178082242972
RANGE-B                 
1 43773U 18099R   23136.88195355  .00002511  00000+0  21574-3 0  9990
2 43773  97.5657 197.4457 0011910 220.1577 139.8767 14.98270385242879
2018-099T               
1 43775U 18099T   23136.90692709  .00002731  00000+0  23626-3 0  9994
2 43775  97.5735 198.9676 0013129 222.4067 137.6142 14.97920995242882
MOVE-II                 
1 43780U 18099Y   23136.62310277  .00007628  00000+0  56829-3 0  9997
2 43780  97.5733 201.3306 0007298 253.8504 106.1918 15.03168353242993
SNUSAT-2                
1 43782U 18099AA  23136.89576882  .00003662  00000+0  30307-3 0  9991
2 43782  97.5732 199.7974 0012146 218.9925 141.0423 14.99446423242947
SNUGLITE                
1 43784U 18099AC  23136.39174707  .00005924  00000+0  48011-3 0  9992
2 43784  97.5735 198.9457 0010110 217.7209 142.3307 15.00024633242909
ITASAT 1                
1 43786U 18099AE  23136.39480615  .00005158  00000+0  42691-3 0  9999
2 43786  97.5790 199.8228 0012150 219.5734 140.4603 14.99259610242884
KAZSCISAT-1             
1 43787U 18099AF  23136.90687683  .00007387  00000+0  55567-3 0  9993
2 43787  97.5599 200.0696 0007472 217.4435 142.6271 15.02811660243073
EAGLET-I                
1 43790U 18099AJ  23136.89508832  .00002492  00000+0  21081-3 0  9999
2 43790  97.5762 200.8044 0012158 229.7338 130.2823 14.98885813242697
ESEO                    
1 43792U 18099AL  23136.89054189  .00001350  00000+0  12056-3 0  9996
2 43792  97.5710 199.3616 0011916 226.9471 133.0754 14.97512242242705
CSIM-FD                 
1 43793U 18099AM  23136.59478334  .00009105  00000+0  66797-3 0  9993
2 43793  97.5791 202.5788 0015680 229.6757 130.3100 15.03617531242835
ASTROCAST 0.1           
1 43798U 18099AS  23136.90378273  .00006998  00000+0  53581-3 0  9998
2 43798  97.5901 202.2689 0012570 196.2966 163.7857 15.02115393243070
JY1SAT (JO-97)          
1 43803U 18099AX  23136.64288912  .00005082  00000+0  40755-3 0  9998
2 43803  97.5716 200.0319 0011919 201.3894 158.6833 15.00483434242967
SUOMI-100               
1 43804U 18099AY  23136.89911776  .00004250  00000+0  34399-3 0  9990
2 43804  97.5693 200.1092 0016141 217.1085 142.9024 15.00169331243001
AL-FARABI 2             
1 43805U 18099AZ  23136.60961171  .00008644  00000+0  66722-3 0  9990
2 43805  97.5619 200.8197 0010180 205.2550 154.8162 15.01759601243017
CENTAURI-1              
1 43809U 18099BD  23136.12053313  .00004467  00000+0  37155-3 0  9998
2 43809  97.5742 199.4411 0012924 221.3003 138.7244 14.99128235242560
CHOMPTT                 
1 43855U 18104G   23136.58581890  .00020393  00000+0  52386-3 0  9991
2 43855  85.0327 187.6285 0014759  84.6284 275.6650 15.39054899245710
UWE-4                   
1 43880U 18111E   23136.17993788  .00005031  00000+0  38907-3 0  9990
2 43880  97.6373  41.8727 0014959 282.8259  77.1294 15.01853434239562
ZACUBE-2                
1 43907U 18111AH  23136.83697075  .00028737  00000+0  73992-3 0  9994
2 43907  97.1432  17.2135 0013830 335.9651 150.3272 15.39089775244326
MICRODRAGON             
1 43935U 19003D   23136.55663498  .00015202  00000+0  47034-3 0  9998
2 43935  97.1056 157.3162 0016171  71.9778 288.3226 15.33441487240584
M6P                     
1 44109U 19018AF  23136.20484787  .00143300  00000+0  95464-3 0  9993
2 44109  97.3681 233.4168 0019091 342.6538  17.4072 15.74719807230995
FORMOSAT 7-4            
1 44350U 19036M   23135.65128207  .00007470  00000+0  39248-3 0  9996
2 44350  23.9992 252.8811 0003245  57.1243 302.9574 15.12941195213773
METEOR-M2 2             
1 44387U 19038A   23136.82880058  .00000102  00000+0  63958-4 0  9998
2 44387  98.7729 100.7997 0002228  53.9605 306.1785 14.23780870200849
VDNH-80                 
1 44392U 19038G   23136.88432563  .00025860  00000+0  93638-3 0  9999
2 44392  97.6722 117.1763 0017533  58.1897 331.7953 15.28233718213535
D-STAR ONE (LIGHTSAT)   
1 44393U 19038H   23136.90871120  .00020964  00000+0  74666-3 0  9999
2 44393  97.6717 117.2417 0017436  59.6173 300.6787 15.28821812213732
AMGU-1 (AMURSAT)        
1 44394U 19038J   23136.90431696  .00030861  00000+0  10450-2 0  9997
2 44394  97.6703 117.4516 0017523  59.0523 301.2431 15.30383821213751
DOT-1                   
1 44399U 19038P   23136.92595742  .00011289  00000+0  49050-3 0  9999
2 44399  97.6804 114.4702 0021877  68.2831 292.0730 15.22248794213527
SOKRAT                  
1 44404U 19038U   23136.50331657  .00025152  00000+0  86709-3 0  9999
2 44404  97.6705 116.5604 0017384  62.5409 297.7596 15.29848178213660
LUCKY-7                 
1 44406U 19038W   23136.92285614  .00012401  00000+0  52273-3 0  9990
2 44406  97.6784 115.1034 0021276  60.2496 300.0853 15.23266818213569
D-STAR ONE (EXOCONNECT) 
1 44410U 19038AA  23136.74858017  .00063871  00000+0  13941-2 0  9993
2 44410  97.6599 120.4619 0013106  58.1272 302.1249 15.43903538213973
NARSSCUBE-2             
1 44415U 19022E   23136.89110162  .00024681  00000+0  48581-3 0  9994
2 44415  51.6359 292.9201 0009749 192.6729 167.4014 15.47050757211467
DUCHIFAT-3              
1 44854U 19089C   23136.80811421  .00009986  00000+0  67949-3 0  9991
2 44854  36.9636 278.7587 0008310  56.6652  92.6685 15.05804328188106
OPS-SAT                 
1 44878U 19092F   23136.74786274  .00023976  00000+0  74967-3 0  9994
2 44878  97.4759 325.1253 0008663 241.3570 118.6801 15.33112210188977
FLORIPASAT-1            
1 44885U 19093G   23136.82848147  .00005114  00000+0  59629-3 0  9992
2 44885  97.8670 218.3424 0013820 177.5151 182.6127 14.85583232184295
BY70-2                  
1 45857U 20042B   23136.91388343  .00023629  00000+0  24836-2 0  9997
2 45857  97.9245 216.7304 0011073 113.2473 246.9873 14.89390978154886
SALSAT                  
1 46495U 20068K   23136.79309757  .00004361  00000+0  29121-3 0  9997
2 46495  97.7683  84.4746 0014340 221.9590 138.0540 15.07471800144343
NETSAT-4                
1 46504U 20068U   23136.64770007  .00008319  00000+0  55517-3 0  9997
2 46504  97.7595  82.1728 0009289 279.4662  80.5462 15.07262946144157
NETSAT-3                
1 46505U 20068V   23136.41203308  .00006809  00000+0  45731-3 0  9997
2 46505  97.7582  81.7737 0008863 294.6371  65.3917 15.07099338144128
NETSAT-1                
1 46506U 20068W   23136.64847416  .00006971  00000+0  47141-3 0  9994
2 46506  97.7583  81.9009 0006880 303.0906  56.9644 15.06849561144156
NETSAT-2                
1 46507U 20068X   23136.64425576  .00008381  00000+0  56059-3 0  9999
2 46507  97.7575  81.9210 0006462 309.9801  50.0822 15.07191871144100
UVSQ-SAT                
1 47438U 21006AB  23136.90756428  .00013185  00000+0  55422-3 0  9999
2 47438  97.3871 194.4818 0010399 183.2005 176.9167 15.23493980127886
SOMP2B                  
1 47445U 21006AJ  23136.88132793  .00011733  00000+0  50402-3 0  9997
2 47445  97.3840 193.7554 0010042 187.5253 172.5835 15.22791156127852
DIY-1 (ARDUIQUBE)       
1 47963U 21022AH  23136.54893348  .00155307  00000+0  26723-2 0  9997
2 47963  97.5004  43.6299 0011550  78.1296 282.1250 15.50467198117672
CAS-5A                  
1 54684U 22167C   23136.83687331  .00013982  00000+0  78448-3 0  9995
2 54684  97.5573 274.6528 0014771  85.3139  70.0990 15.13376692 23933
